{
  "type": "FeatureCollection",
  "features": [
    {
      "type": "Feature",
      "properties": {
        "norad_id": 34340,
        "name": "COSMOS 2251 DEB",
        "group": "cosmos-2251-debris",
        "lat": -57.78669618225432,
        "lon": 153.05287663263272,
        "alt_km": 1177.6265052747804,
        "timestamp": "2025-12-13T20:38:51.401832+00:00",
        "meta_object_name": "COSMOS 2251 DEB",
        "meta_object_id": "1993-036PN",
        "meta_epoch": "2025-12-13T07:51:10.056672",
        "meta_mean_motion": 13.79574855,
        "meta_eccentricity": 0.02826689,
        "meta_inclination": 74.0793,
        "meta_ra_of_asc_node": 307.0059,
        "meta_arg_of_pericenter": 54.6482,
        "meta_mean_anomaly": 60.6759,
        "meta_ephemeris_type": 0,
        "meta_classification_type": "U",
        "meta_norad_cat_id": 34340,
        "meta_element_set_no": 999,
        "meta_rev_at_epoch": 84276,
        "meta_bstar": 0.0021835544,
        "meta_mean_motion_dot": 3.018e-05,
        "meta_mean_motion_ddot": 0,
        "tle_line1": "1 34340U 93036PN  25347.32719973  .00003018  00000+0  21836-2 0  9990",
        "tle_line2": "2 34340  74.0793 307.0059 0282668  54.6482  60.6759 13.79574855842765"
      },
      "geometry": {
        "type": "Point",
        "coordinates": [
          153.05287663263272,
          -57.78669618225432
        ]
      }
    },
    {
      "type": "Feature",
      "properties": {
        "norad_id": 34343,
        "name": "COSMOS 2251 DEB",
        "group": "cosmos-2251-debris",
        "lat": -40.90544714790764,
        "lon": 73.00582121897884,
        "alt_km": 657.1639194823201,
        "timestamp": "2025-12-13T20:38:51.401843+00:00",
        "meta_object_name": "COSMOS 2251 DEB",
        "meta_object_id": "1993-036PR",
        "meta_epoch": "2025-12-13T08:01:18.475104",
        "meta_mean_motion": 14.69463807,
        "meta_eccentricity": 0.00234843,
        "meta_inclination": 74.0197,
        "meta_ra_of_asc_node": 88.4011,
        "meta_arg_of_pericenter": 2.997,
        "meta_mean_anomaly": 52.5099,
        "meta_ephemeris_type": 0,
        "meta_classification_type": "U",
        "meta_norad_cat_id": 34343,
        "meta_element_set_no": 999,
        "meta_rev_at_epoch": 88739,
        "meta_bstar": 0.0025618441,
        "meta_mean_motion_dot": 0.00015245,
        "meta_mean_motion_ddot": 0,
        "tle_line1": "1 34343U 93036PR  25347.33424161  .00015245  00000+0  25618-2 0  9993",
        "tle_line2": "2 34343  74.0197  88.4011 0023484   2.9970  52.5099 14.69463807887390"
      },
      "geometry": {
        "type": "Point",
        "coordinates": [
          73.00582121897884,
          -40.90544714790764
        ]
      }
    },
    {
      "type": "Feature",
      "properties": {
        "norad_id": 34344,
        "name": "COSMOS 2251 DEB",
        "group": "cosmos-2251-debris",
        "lat": -22.015870367616575,
        "lon": -64.98042193150332,
        "alt_km": 839.551645935243,
        "timestamp": "2025-12-13T20:38:51.401853+00:00",
        "meta_object_name": "COSMOS 2251 DEB",
        "meta_object_id": "1993-036PS",
        "meta_epoch": "2025-12-13T07:57:00.078624",
        "meta_mean_motion": 14.16416745,
        "meta_eccentricity": 0.01559613,
        "meta_inclination": 73.9776,
        "meta_ra_of_asc_node": 109.2914,
        "meta_arg_of_pericenter": 293.333,
        "meta_mean_anomaly": 94.594,
        "meta_ephemeris_type": 0,
        "meta_classification_type": "U",
        "meta_norad_cat_id": 34344,
        "meta_element_set_no": 999,
        "meta_rev_at_epoch": 86105,
        "meta_bstar": 0.0027611495,
        "meta_mean_motion_dot": 6.158e-05,
        "meta_mean_motion_ddot": 0,
        "tle_line1": "1 34344U 93036PS  25347.33125091  .00006158  00000+0  27611-2 0  9992",
        "tle_line2": "2 34344  73.9776 109.2914 0155961 293.3330  94.5940 14.16416745861055"
      },
      "geometry": {
        "type": "Point",
        "coordinates": [
          -64.98042193150332,
          -22.015870367616575
        ]
      }
    },
    {
      "type": "Feature",
      "properties": {
        "norad_id": 34346,
        "name": "COSMOS 2251 DEB",
        "group": "cosmos-2251-debris",
        "lat": -65.80303464633695,
        "lon": 169.99990721019904,
        "alt_km": 980.3178516692833,
        "timestamp": "2025-12-13T20:38:51.401863+00:00",
        "meta_object_name": "COSMOS 2251 DEB",
        "meta_object_id": "1993-036PU",
        "meta_epoch": "2025-12-13T08:09:49.367808",
        "meta_mean_motion": 13.9969546,
        "meta_eccentricity": 0.020621,
        "meta_inclination": 73.995,
        "meta_ra_of_asc_node": 311.2044,
        "meta_arg_of_pericenter": 129.9917,
        "meta_mean_anomaly": 19.5449,
        "meta_ephemeris_type": 0,
        "meta_classification_type": "U",
        "meta_norad_cat_id": 34346,
        "meta_element_set_no": 999,
        "meta_rev_at_epoch": 85418,
        "meta_bstar": 0.0014262314,
        "meta_mean_motion_dot": 2.484e-05,
        "meta_mean_motion_ddot": 0,
        "tle_line1": "1 34346U 93036PU  25347.34015472  .00002484  00000+0  14262-2 0  9992",
        "tle_line2": "2 34346  73.9950 311.2044 0206210 129.9917  19.5449 13.99695460854189"
      },
      "geometry": {
        "type": "Point",
        "coordinates": [
          169.99990721019904,
          -65.80303464633695
        ]
      }
    },
    {
      "type": "Feature",
      "properties": {
        "norad_id": 34383,
        "name": "COSMOS 2251 DEB",
        "group": "cosmos-2251-debris",
        "lat": 11.325807200948235,
        "lon": 112.10106381970704,
        "alt_km": 540.7310380703602,
        "timestamp": "2025-12-13T20:38:51.401874+00:00",
        "meta_object_name": "COSMOS 2251 DEB",
        "meta_object_id": "1993-036PY",
        "meta_epoch": "2025-12-13T07:43:48.517248",
        "meta_mean_motion": 15.09096636,
        "meta_eccentricity": 0.00023345,
        "meta_inclination": 74.0219,
        "meta_ra_of_asc_node": 296.5009,
        "meta_arg_of_pericenter": 45.1672,
        "meta_mean_anomaly": 80.0273,
        "meta_ephemeris_type": 0,
        "meta_classification_type": "U",
        "meta_norad_cat_id": 34383,
        "meta_element_set_no": 999,
        "meta_rev_at_epoch": 89122,
        "meta_bstar": 0.0048451422,
        "meta_mean_motion_dot": 0.00077636,
        "meta_mean_motion_ddot": 0,
        "tle_line1": "1 34383U 93036PY  25347.32208932  .00077636  00000+0  48451-2 0  9994",
        "tle_line2": "2 34383  74.0219 296.5009 0002334  45.1672  80.0273 15.09096636891221"
      },
      "geometry": {
        "type": "Point",
        "coordinates": [
          112.10106381970704,
          11.325807200948235
        ]
      }
    },
    {
      "type": "Feature",
      "properties": {
        "norad_id": 34387,
        "name": "COSMOS 2251 DEB",
        "group": "cosmos-2251-debris",
        "lat": -20.232641995918893,
        "lon": 35.868318109901516,
        "alt_km": 758.0234334329234,
        "timestamp": "2025-12-13T20:38:51.401966+00:00",
        "meta_object_name": "COSMOS 2251 DEB",
        "meta_object_id": "1993-036QC",
        "meta_epoch": "2025-12-12T22:10:00.083712",
        "meta_mean_motion": 14.43821195,
        "meta_eccentricity": 0.00387815,
        "meta_inclination": 74.0401,
        "meta_ra_of_asc_node": 211.5541,
        "meta_arg_of_pericenter": 308.4592,
        "meta_mean_anomaly": 66.1437,
        "meta_ephemeris_type": 0,
        "meta_classification_type": "U",
        "meta_norad_cat_id": 34387,
        "meta_element_set_no": 999,
        "meta_rev_at_epoch": 88184,
        "meta_bstar": 0.00043482305,
        "meta_mean_motion_dot": 1.467e-05,
        "meta_mean_motion_ddot": 0,
        "tle_line1": "1 34387U 93036QC  25346.92361208  .00001467  00000+0  43482-3 0  9998",
        "tle_line2": "2 34387  74.0401 211.5541 0038781 308.4592  66.1437 14.43821195881844"
      },
      "geometry": {
        "type": "Point",
        "coordinates": [
          35.868318109901516,
          -20.232641995918893
        ]
      }
    },
    {
      "type": "Feature",
      "properties": {
        "norad_id": 34388,
        "name": "COSMOS 2251 DEB",
        "group": "cosmos-2251-debris",
        "lat": -25.177137042046102,
        "lon": 48.73535839474876,
        "alt_km": 728.3757260620987,
        "timestamp": "2025-12-13T20:38:51.401981+00:00",
        "meta_object_name": "COSMOS 2251 DEB",
        "meta_object_id": "1993-036QD",
        "meta_epoch": "2025-12-13T01:48:08.373888",
        "meta_mean_motion": 14.49369086,
        "meta_eccentricity": 0.00140391,
        "meta_inclination": 74.039,
        "meta_ra_of_asc_node": 222.4758,
        "meta_arg_of_pericenter": 270.6697,
        "meta_mean_anomaly": 160.2215,
        "meta_ephemeris_type": 0,
        "meta_classification_type": "U",
        "meta_norad_cat_id": 34388,
        "meta_element_set_no": 999,
        "meta_rev_at_epoch": 88160,
        "meta_bstar": 0.0010535844,
        "meta_mean_motion_dot": 4.006e-05,
        "meta_mean_motion_ddot": 0,
        "tle_line1": "1 34388U 93036QD  25347.07509692  .00004006  00000+0  10536-2 0  9992",
        "tle_line2": "2 34388  74.0390 222.4758 0014039 270.6697 160.2215 14.49369086881605"
      },
      "geometry": {
        "type": "Point",
        "coordinates": [
          48.73535839474876,
          -25.177137042046102
        ]
      }
    }
  ]
}